APRIZESAT 2             
1 28366U 04025A   26161.25713083  .00000140  00000+0  57050-4 0  9996
2 28366  98.1008 327.6301 0104261 271.0183  87.9061 14.38033174150642
SAUDICOMSAT 1           
1 28369U 04025D   26161.27911326  .00000343  00000+0  89720-4 0  9995
2 28369  98.5772 171.2241 0033042  46.3248 314.0679 14.55468160163128
SAUDICOMSAT 2           
1 28370U 04025E   26161.29346584  .00000230  00000+0  70995-4 0  9996
2 28370  98.6642 173.3444 0054140 280.8348  78.6755 14.49977256159108
APRIZESAT 1             
1 28372U 04025G   26161.26469774  .00000176  00000+0  55257-4 0  9995
2 28372  98.6304 171.8018 0044669 174.6933 185.4744 14.51773475160905
NANOSAT-1               
1 28493U 04049B   26161.20615337  .00000901  00000+0  12601-3 0  9998
2 28493  98.2267 297.6969 0003183 332.1489  27.9551 14.80145802154412
SAUDICOMSAT 7           
1 31119U 07012C   26160.87840313  .00000430  00000+0  86238-4 0  9991
2 31119  98.3774 134.8606 0054824 218.3588 141.3711 14.66103377 21369
SAUDICOMSAT 6           
1 31121U 07012E   26161.18052265  .00000575  00000+0  11943-3 0  9990
2 31121  98.4096 128.5668 0071570 349.7182  10.2551 14.62549610 19165
SAUDICOMSAT 5           
1 31124U 07012H   26161.20280535  .00000498  00000+0  94234-4 0  9998
2 31124  98.3486 135.9404 0048095 146.2479 214.1804 14.68147951 22578
SAUDICOMSAT 3           
1 31125U 07012J   26161.17550719  .00000759  00000+0  13177-3 0  9995
2 31125  98.3140 136.4615 0040469  74.7018 285.8655 14.70693972 23793
SAUDICOMSAT 4           
1 31127U 07012L   26161.18572832  .00000459  00000+0  94174-4 0  9992
2 31127  98.3979 133.6134 0062071 280.5757  78.8457 14.64505245 20267
APRIZESAT 4             
1 35684U 09041D   26161.17671137  .00000591  00000+0  77144-4 0  9990
2 35684  98.1412 236.3574 0042887 346.1473  13.8560 14.83870024910325
APRIZESAT 3             
1 35686U 09041F   26161.21079496  .00001173  00000+0  10578-3 0  9991
2 35686  98.2053 314.1012 0062773  90.1619 270.6794 14.96220288915338
S-NET D                 
1 43186U 18014G   26161.00648275  .00005007  00000+0  25944-3 0  9992
2 43186  97.5370  65.8418 0009561  51.9999 308.2096 15.16605477457679
S-NET B                 
1 43187U 18014H   26160.68789617  .00005042  00000+0  26145-3 0  9995
2 43187  97.5374  65.5115 0010086  48.2673 311.9421 15.16571708457624
S-NET A                 
1 43188U 18014J   26160.74148530  .00005052  00000+0  26170-3 0  9995
2 43188  97.5383  65.7721 0010011  48.9055 311.3041 15.16610982457630
S-NET C                 
1 43189U 18014K   26160.69173399  .00005014  00000+0  26003-3 0  9994
2 43189  97.5401  65.7960 0011214  41.6172 318.5912 15.16563550456175
SALSAT                  
1 46495U 20068K   26161.27729316  .00007605  00000+0  26695-3 0  9995
2 46495  97.8853 163.9217 0008648 336.5873  23.4971 15.29700288314309
OOV-CUBE (TUBSAT-30)    
1 60240U 24128F   26160.60303325  .00002162  00000+0  17320-3 0  9992
2 60240  61.9950 252.0179 0045573 132.0593 228.4390 15.02742005104972
LPNTSAT-001 (IOD-1)     
1 68408U 26065A   26160.23518866  .00002468  00000+0  12254-3 0  9995
2 68408  97.4031  40.9129 0017495  37.3631 322.8816 15.18495128 11057
